NORAD_CAT_ID,OBJECT_NAME,OBJECT_TYPE,EPOCH,MEAN_MOTION,ECCENTRICITY,INCLINATION,RA_OF_ASC_NODE,ARG_OF_PERICENTER,MEAN_ANOMALY,BSTAR,MEAN_MOTION_DOT,MEAN_MOTION_DDOT,TLE_LINE0,TLE_LINE1,TLE_LINE2,SEMIMAJOR_AXIS,PERIOD,APOGEE,PERIGEE,DECAYED
52678.0,STARLINK-4074,PAYLOAD,2024-04-21 22:24:13,15.0885353,0.0001509,53.2188,347.1918,104.7305,255.3855,0.00040219,6.121e-05,0.0,0 STARLINK-4074,1 52678U 22053Y   24112.93349342  .00006121  00000-0  40219-3 0  9996,2 52678  53.2188 347.1918 0001509 104.7305 255.3855 15.08853530107497,6917.839,95.437,540.748,538.66,0.0
52678.0,STARLINK-4074,PAYLOAD,2024-04-22 01:35:00,15.08854843,0.0001736,53.2189,346.5966,101.8694,258.2493,0.00044631,6.825e-05,0.0,0 STARLINK-4074,1 52678U 22053Y   24113.06597338  .00006825  00000-0  44631-3 0  9994,2 52678  53.2189 346.5966 0001736 101.8694 258.2493 15.08854843107516,6917.835,95.437,540.901,538.499,0.0
52678.0,STARLINK-4074,PAYLOAD,2024-04-22 20:39:38,15.08841346,0.0001541,53.2174,343.024,116.5374,243.5777,0.00021451,3.128e-05,0.0,0 STARLINK-4074,1 52678U 22053Y   24113.86086206  .00003128  00000-0  21451-3 0  9997,2 52678  53.2174 343.0240 0001541 116.5374 243.5777 15.08841346107201,6917.876,95.437,540.807,538.675,0.0
52678.0,STARLINK-4074,PAYLOAD,2024-04-22 22:15:01,15.08840286,0.0001416,53.2186,342.7401,102.6961,257.4189,0.00020388,2.958e-05,0.0,0 STARLINK-4074,1 52678U 22053Y   24113.92710434  .00002958  00000-0  20388-3 0  9999,2 52678  53.2186 342.7401 0001416 102.6961 257.4189 15.08840286107649,6917.88,95.438,540.724,538.765,0.0
52678.0,STARLINK-4074,PAYLOAD,2024-04-23 20:30:25,15.08839113,0.0001445,53.2181,338.5706,99.2229,260.8926,-3.3268e-06,-3.41e-06,0.0,0 STARLINK-4074,1 52678U 22053Y   24114.85446495 -.00000341  00000-0 -33268-5 0  9994,2 52678  53.2181 338.5706 0001445  99.2229 260.8926 15.08839113107357,6917.883,95.438,540.748,538.748,0.0
52678.0,STARLINK-4074,PAYLOAD,2024-04-23 22:05:48,15.08842298,0.0001507,53.2186,338.275,103.6575,256.4585,6.0022e-05,6.67e-06,0.0,0 STARLINK-4074,1 52678U 22053Y   24114.92070385  .00000667  00000-0  60022-4 0  9999,2 52678  53.2186 338.2750 0001507 103.6575 256.4585 15.08842298107799,6917.873,95.437,540.781,538.696,0.0
52678.0,STARLINK-4074,PAYLOAD,2024-04-24 21:56:36,15.08843179,0.0002011,53.2179,333.8188,59.5062,300.6128,0.00023138,3.397e-05,0.0,0 STARLINK-4074,1 52678U 22053Y   24115.91431011  .00003397  00000-0  23138-3 0  9995,2 52678  53.2179 333.8188 0002011  59.5062 300.6128 15.08843179107949,6917.871,95.437,541.127,538.344,0.0
52678.0,STARLINK-4074,PAYLOAD,2024-04-25 01:07:22,15.08852322,0.0001497,53.2174,333.2155,80.7572,279.3589,0.00036435,5.517e-05,0.0,0 STARLINK-4074,1 52678U 22053Y   24116.04678302  .00005517  00000-0  36435-3 0  9996,2 52678  53.2174 333.2155 0001497  80.7572 279.3589 15.08852322107539,6917.843,95.437,540.743,538.672,0.0
52678.0,STARLINK-4074,PAYLOAD,2024-04-25 20:11:59,15.08845044,0.0001361,53.2175,329.6427,106.4262,253.6879,0.00011093,1.478e-05,0.0,0 STARLINK-4074,1 52678U 22053Y   24116.84166434  .00001478  00000-0  11093-3 0  9997,2 52678  53.2175 329.6427 0001361 106.4262 253.6879 15.08845044107656,6917.865,95.437,540.671,538.788,0.0
52678.0,STARLINK-4074,PAYLOAD,2024-04-25 21:47:22,15.08847988,0.0001258,53.2172,329.3477,89.6078,270.5058,0.00019792,2.864e-05,0.0,0 STARLINK-4074,1 52678U 22053Y   24116.90790344  .00002864  00000-0  19792-3 0  9991,2 52678  53.2172 329.3477 0001258  89.6078 270.5058 15.08847988108092,6917.856,95.437,540.591,538.851,0.0
52678.0,STARLINK-4074,PAYLOAD,2024-04-26 13:41:14,15.08835814,0.0001797,53.2162,326.3785,93.4763,266.6435,-5.6826e-05,-1.192e-05,0.0,0 STARLINK-4074,1 52678U 22053Y   24117.57030923 -.00001192  00000-0 -56826-4 0  9990,2 52678  53.2162 326.3785 0001797  93.4763 266.6435 15.08835814107765,6917.893,95.438,541.001,538.515,0.0
52678.0,STARLINK-4074,PAYLOAD,2024-04-27 13:32:01,15.08846974,0.000161,53.2167,321.9201,96.1808,263.9367,0.00031606,4.747e-05,0.0,0 STARLINK-4074,1 52678U 22053Y   24118.56390919  .00004747  00000-0  31606-3 0  9999,2 52678  53.2167 321.9201 0001610  96.1808 263.9367 15.08846974108346,6917.859,95.437,540.838,538.61,0.0
52678.0,STARLINK-4074,PAYLOAD,2024-04-27 19:53:34,15.08849328,0.0001416,53.2158,320.7298,106.5574,253.5574,0.00044807,6.852e-05,0.0,0 STARLINK-4074,1 52678U 22053Y   24118.82886618  .00006852  00000-0  44807-3 0  9990,2 52678  53.2158 320.7298 0001416 106.5574 253.5574 15.08849328107956,6917.852,95.437,540.696,538.737,0.0
52678.0,STARLINK-4074,PAYLOAD,2024-04-28 13:22:49,15.08837921,0.0001921,53.217,317.4609,78.5597,281.5611,3.5142e-05,2.71e-06,0.0,0 STARLINK-4074,1 52678U 22053Y   24119.55751191  .00000271  00000-0  35142-4 0  9990,2 52678  53.2170 317.4609 0001921  78.5597 281.5611 15.08837921108065,6917.887,95.438,541.081,538.423,0.0
52678.0,STARLINK-4074,PAYLOAD,2024-04-28 19:44:21,15.08838354,0.0001536,53.2186,316.2716,83.6455,276.4712,-3.6889e-05,-8.75e-06,0.0,0 STARLINK-4074,1 52678U 22053Y   24119.82247121 -.00000875  00000-0 -36889-4 0  9994,2 52678  53.2186 316.2716 0001536  83.6455 276.4712 15.08838354108538,6917.885,95.438,540.813,538.688,0.0
52678.0,STARLINK-4074,PAYLOAD,2024-04-29 19:35:08,15.08850602,0.0001397,53.2185,311.8107,84.4356,275.6795,0.00058998,9.117e-05,0.0,0 STARLINK-4074,1 52678U 22053Y   24120.81607051  .00009117  00000-0  58998-3 0  9997,2 52678  53.2185 311.8107 0001397  84.4356 275.6795 15.08850602108257,6917.848,95.437,540.679,538.747,0.0
52678.0,STARLINK-4074,PAYLOAD,2024-04-30 05:07:27,15.08847023,0.0001289,53.2177,310.0257,80.4205,279.6933,0.00032628,4.91e-05,0.0,0 STARLINK-4074,1 52678U 22053Y   24121.21350985  .00004910  00000-0  32628-3 0  9991,2 52678  53.2177 310.0257 0001289  80.4205 279.6933 15.08847023108312,6917.859,95.437,540.616,538.832,0.0
52678.0,STARLINK-4074,PAYLOAD,2024-04-30 19:25:55,15.08847709,0.0001266,53.218,307.3493,91.355,268.7588,0.00032939,4.959e-05,0.0,0 STARLINK-4074,1 52678U 22053Y   24121.80966859  .00004959  00000-0  32939-3 0  9997,2 52678  53.2180 307.3493 0001266  91.3550 268.7588 15.08847709108839,6917.857,95.437,540.598,538.846,0.0
52678.0,STARLINK-4074,PAYLOAD,2024-05-01 04:58:14,15.08848702,0.0001183,53.2177,305.5653,85.1211,274.9917,0.00051785,7.965e-05,0.0,0 STARLINK-4074,1 52678U 22053Y   24122.20710814  .00007965  00000-0  51785-3 0  9990,2 52678  53.2177 305.5653 0001183  85.1211 274.9917 15.08848702108464,6917.854,95.437,540.537,538.9,0.0
52678.0,STARLINK-4074,PAYLOAD,2024-05-01 11:19:46,15.0884982,0.0001209,53.2174,304.3772,94.0255,266.0875,0.00034461,5.202e-05,0.0,0 STARLINK-4074,1 52678U 22053Y   24122.47206718  .00005202  00000-0  34461-3 0  9996,2 52678  53.2174 304.3772 0001209  94.0255 266.0875 15.08849820108935,6917.85,95.437,540.552,538.879,0.0
52678.0,STARLINK-4074,PAYLOAD,2024-05-01 19:16:42,15.08845435,0.0001218,53.2174,302.8901,90.8062,269.307,0.00024403,3.599e-05,0.0,0 STARLINK-4074,1 52678U 22053Y   24122.80326778  .00003599  00000-0  24403-3 0  9994,2 52678  53.2174 302.8901 0001218  90.8062 269.3070 15.08845435108551,6917.864,95.437,540.571,538.886,0.0
52678.0,STARLINK-4074,PAYLOAD,2024-05-02 11:10:34,15.08836978,0.0001216,53.2178,299.9173,89.2778,270.8354,0.00014137,1.963e-05,0.0,0 STARLINK-4074,1 52678U 22053Y   24123.46567213  .00001963  00000-0  14137-3 0  9994,2 52678  53.2178 299.9173 0001216  89.2778 270.8354 15.08836978108651,6917.89,95.438,540.596,538.913,0.0
52678.0,STARLINK-4074,PAYLOAD,2024-05-03 11:01:21,15.0884192,0.0001177,53.215,295.4551,72.8281,287.284,0.00015189,2.13e-05,0.0,0 STARLINK-4074,1 52678U 22053Y   24124.45927205  .00002130  00000-0  15189-3 0  9990,2 52678  53.2150 295.4551 0001177  72.8281 287.2840 15.08841920109235,6917.875,95.437,540.554,538.925,0.0
52678.0,STARLINK-4074,PAYLOAD,2024-05-03 18:58:16,15.08844447,0.000113,53.2155,293.9682,79.5349,280.577,0.00018822,2.709e-05,0.0,0 STARLINK-4074,1 52678U 22053Y   24124.79047047  .00002709  00000-0  18822-3 0  9993,2 52678  53.2155 293.9682 0001130  79.5349 280.5770 15.08844447108858,6917.867,95.437,540.514,538.95,0.0
52678.0,STARLINK-4074,PAYLOAD,2024-05-04 10:52:08,15.08838211,0.000136,53.2164,290.9964,82.4531,277.6615,0.00011987,1.62e-05,0.0,0 STARLINK-4074,1 52678U 22053Y   24125.45287459  .00001620  00000-0  11987-3 0  9996,2 52678  53.2164 290.9964 0001360  82.4531 277.6615 15.08838211108957,6917.886,95.438,540.692,538.81,0.0
52678.0,STARLINK-4074,PAYLOAD,2024-05-05 13:53:41,15.08845683,0.0001262,53.2167,285.9389,88.4313,271.6824,0.0001606,2.269e-05,0.0,0 STARLINK-4074,1 52678U 22053Y   24126.57895397  .00002269  00000-0  16060-3 0  9993,2 52678  53.2167 285.9389 0001262  88.4313 271.6824 15.08845683109554,6917.863,95.437,540.601,538.855,0.0
52678.0,STARLINK-4074,PAYLOAD,2024-05-05 17:04:27,15.08849362,0.000129,53.2164,285.3435,92.4518,267.6621,0.00020321,2.948e-05,0.0,0 STARLINK-4074,1 52678U 22053Y   24126.71143185  .00002948  00000-0  20321-3 0  9999,2 52678  53.2164 285.3435 0001290  92.4518 267.6621 15.08849362109143,6917.852,95.437,540.609,538.824,0.0
52678.0,STARLINK-4074,PAYLOAD,2024-05-06 10:33:42,15.08845585,0.0001277,53.216,282.0727,92.2443,267.8696,0.00022826,3.347e-05,0.0,0 STARLINK-4074,1 52678U 22053Y   24127.44007327  .00003347  00000-0  22826-3 0  9993,2 52678  53.2160 282.0727 0001277  92.2443 267.8696 15.08845585109256,6917.863,95.437,540.612,538.845,0.0
52678.0,STARLINK-4074,PAYLOAD,2024-05-06 16:55:14,15.08852295,0.0001283,53.2162,280.8825,95.84,264.2738,0.00029934,4.481e-05,0.0,0 STARLINK-4074,1 52678U 22053Y   24127.70502942  .00004481  00000-0  29934-3 0  9992,2 52678  53.2162 280.8825 0001283  95.8400 264.2738 15.08852295109728,6917.843,95.437,540.595,538.82,0.0
52678.0,STARLINK-4074,PAYLOAD,2024-05-07 10:24:26,15.08881563,0.0001348,53.2192,277.6126,97.2001,262.9144,0.00061543,9.531e-05,0.0,0 STARLINK-4074,1 52678U 22053Y   24128.43364372  .00009531  00000-0  61543-3 0  9999,2 52678  53.2192 277.6126 0001348  97.2001 262.9144 15.08881563109405,6917.753,95.435,540.551,538.686,0.0
